*******************************************************************************
JPL/HORIZONS               626 Notburga (A907 CH)          2020-Jun-22 09:17:11
Rec #:     626 (+COV) Soln.date: 2020-May-20_01:09:21   # obs: 2141 (1907-2020)
 
IAU76/J2000 helio. ecliptic osc. elements (au, days, deg., period=Julian yrs):
 
  EPOCH=  2455748.5 ! 2011-Jul-06.00 (TDB)         Residual RMS= .30497
   EC= .2417098620117111   QR= 1.952925466563268   TP= 2456439.8980378537
   OM= 341.698984807073    W=  43.70206071338059   IN= 25.35032400235479
   A= 2.575433028503173    MA= 195.1242344269071   ADIST= 3.197940590443078
   PER= 4.13317            N= .23846721            ANGMOM= .026787633
   DAN= 2.06425            DDN= 2.93844            L= 22.5149495
   B= 17.2063348           MOID= 1.00311995        TP= 2013-May-27.3980378537
 
Asteroid physical parameters (km, seconds, rotational period in hours):
   GM= n.a.                RAD= 36.618             ROTPER= 19.353
   H= 9.2                  G= .150                 B-V= .705
                           ALBEDO= .032            STYP= Xc
 
ASTEROID comments: 
1: soln ref.= JPL#37, OCC=0
2: source=ORB
*******************************************************************************
 
 
*******************************************************************************
Ephemeris / WWW_USER Mon Jun 22 09:17:11 2020 Pasadena, USA      / Horizons
*******************************************************************************
Target body name: 626 Notburga (A907 CH)          {source: JPL#37}
Center body name: Solar System Barycenter (0)     {source: DE431}
Center-site name: BODY CENTER
*******************************************************************************
Start time      : A.D. 1969-Jun-28 00:00:00.0000 TDB
Stop  time      : A.D. 2071-May-04 00:00:00.0000 TDB
Step-size       : 7200 minutes
*******************************************************************************
Center geodetic : 0.00000000,0.00000000,0.0000000 {E-lon(deg),Lat(deg),Alt(km)}
Center cylindric: 0.00000000,0.00000000,0.0000000 {E-lon(deg),Dxy(km),Dz(km)}
Center radii    : (undefined)                                                  
Small perturbers: Yes                             {source: SB431-N16}
Output units    : AU-D
Output type     : GEOMETRIC cartesian states
Output format   : 2 (position and velocity)
Reference frame : Ecliptic of J2000.0
*******************************************************************************
Initial IAU76/J2000 heliocentric ecliptic osculating elements (au, days, deg.):
  EPOCH=  2455748.5 ! 2011-Jul-06.00 (TDB)         Residual RMS= .30497        
   EC= .2417098620117111   QR= 1.952925466563268   TP= 2456439.8980378537      
   OM= 341.698984807073    W=  43.70206071338059   IN= 25.35032400235479       
  Equivalent ICRF heliocentric equatorial cartesian coordinates (au, au/d):
   X=-2.532626905259055E+00  Y=-1.024864871472785E+00  Z=-1.634804165294881E+00
  VX= 5.323915104375347E-03 VY=-4.905122834419420E-03 VZ=-4.310313260478504E-03
Asteroid physical parameters (km, seconds, rotational period in hours):        
   GM= n.a.                RAD= 36.618             ROTPER= 19.353              
   H= 9.2                  G= .150                 B-V= .705                   
                           ALBEDO= .032            STYP= Xc                    
*******************************************************************************
            JDTDB,            Calendar Date (TDB),        delta-T,                      X,                      Y,                      Z,                     VX,                     VY,                     VZ,
******************************************************************************************************************************************************************************************************************
$$SOE
2451740.500000000, A.D. 2000-Jul-15 00:00:00.0000,      64.183738,  1.724826718272537E+00, -1.310977274524586E+00, -3.325198754931056E-01,  5.418689103388603E-03,  9.889217339281884E-03,  5.251600664985032E-03,
2451745.500000000, A.D. 2000-Jul-20 00:00:00.0000,      64.183601,  1.751307608344355E+00, -1.261076729195633E+00, -3.061478116610727E-01,  5.172367481267823E-03,  1.007032313335675E-02,  5.296728034767485E-03,
2451750.500000000, A.D. 2000-Jul-25 00:00:00.0000,      64.183467,  1.776537417662847E+00, -1.210281102109240E+00, -2.795576877518936E-01,  4.918261214029383E-03,  1.024719325275640E-02,  5.338799784654512E-03,
2451755.500000000, A.D. 2000-Jul-30 00:00:00.0000,      64.183338,  1.800477304706317E+00, -1.158612431413186E+00, -2.527651568140065E-01,  4.656406130323310E-03,  1.041948222375338E-02,  5.377665695126625E-03,
2451760.500000000, A.D. 2000-Aug-04 00:00:00.0000,      64.183215,  1.823088655357432E+00, -1.106094505492877E+00, -2.257866261717836E-01,  4.386857573968092E-03,  1.058683554719271E-02,  5.413174361268061E-03,
2451765.500000000, A.D. 2000-Aug-09 00:00:00.0000,      64.183096,  1.844333183631115E+00, -1.052752906163068E+00, -1.986392620181216E-01,  4.109691662550997E-03,  1.074889049340587E-02,  5.445173735625202E-03,
2451770.500000000, A.D. 2000-Aug-14 00:00:00.0000,      64.182982,  1.864173038649985E+00, -9.986150475693140E-01, -1.713409911553397E-01,  3.825006525335858E-03,  1.090527702432551E-02,  5.473511726180057E-03,
2451775.500000000, A.D. 2000-Aug-19 00:00:00.0000,      64.182875,  1.882570917724621E+00, -9.437102101489712E-01, -1.439104996070878E-01,  3.532923504513020E-03,  1.105561884851811E-02,  5.498036849993943E-03,
2451780.500000000, A.D. 2000-Aug-24 00:00:00.0000,      64.182777,  1.899490185313581E+00, -8.880695689732613E-01, -1.163672278234608E-01,  3.233588303068894E-03,  1.119953461449709E-02,  5.518598942123950E-03,
2451785.500000000, A.D. 2000-Aug-29 00:00:00.0000,      64.182690,  1.914894997554573E+00, -8.317262157695027E-01, -8.873136220622614E-02,  2.927172062563206E-03,  1.133663924569708E-02,  5.535049918326210E-03,
2451790.500000000, A.D. 2000-Sep-03 00:00:00.0000,      64.182612,  1.928750431973131E+00, -7.747151739116923E-01, -6.102382269109707E-02,  2.613872353329375E-03,  1.146654541818042E-02,  5.547244589030212E-03,
2451795.500000000, A.D. 2000-Sep-08 00:00:00.0000,      64.182543,  1.941022621884574E+00, -7.170734056667921E-01, -3.326624613912352E-02,  2.293914058398474E-03,  1.158886518039045E-02,  5.555041521037769E-03,
2451800.500000000, A.D. 2000-Sep-13 00:00:00.0000,      64.182483,  1.951678894909841E+00, -6.588398109922123E-01, -5.480965309679637E-03,  1.967550131910244E-03,  1.170321171226615E-02,  5.558303942328126E-03,
2451805.500000000, A.D. 2000-Sep-18 00:00:00.0000,      64.182434,  1.960687914929303E+00, -6.000552171998234E-01,  2.230901678683153E-02,  1.635062212655858E-03,  1.180920121838947E-02,  5.556900684353085E-03,
2451810.500000000, A.D. 2000-Sep-23 00:00:00.0000,      64.182398,  1.968019826701572E+00, -5.407623588356655E-01,  5.008005732806280E-02,  1.296761073286523E-03,  1.190645494694421E-02,  5.550707155294768E-03,
2451815.500000000, A.D. 2000-Sep-28 00:00:00.0000,      64.182375,  1.973646402276946E+00, -4.810058471729166E-01,  7.780790904719766E-02,  9.529868857182215E-04,  1.199460132336550E-02,  5.539606336843685E-03,
2451820.500000000, A.D. 2000-Oct-03 00:00:00.0000,      64.182364,  1.977541188238172E+00, -4.208321287782312E-01,  1.054677606257487E-01,  6.041092834993889E-04,  1.207327818481234E-02,  5.523489796053203E-03,
2451825.500000000, A.D. 2000-Oct-08 00:00:00.0000,      64.182364,  1.979679652706842E+00, -3.602894326874154E-01,  1.330342821636573E-01,  2.505272027329978E-04,  1.214213509899966E-02,  5.502258702717848E-03,
2451830.500000000, A.D. 2000-Oct-13 00:00:00.0000,      64.182375,  1.980039330965244E+00, -2.994277058153019E-01,  1.604816757280652E-01, -1.073315153102685E-04,  1.220083574827375E-02,  5.475824841590646E-03,
2451835.500000000, A.D. 2000-Oct-18 00:00:00.0000,      64.182398,  1.978599968464246E+00, -2.382985363270871E-01,  1.877837309259527E-01, -4.690107746635677E-04,  1.224906035708002E-02,  5.444111607660728E-03,
2451840.500000000, A.D. 2000-Oct-23 00:00:00.0000,      64.182434,  1.975343659919752E+00, -1.769550648144395E-01,  2.149138853842967E-01, -8.340271406292618E-04,  1.228650813830158E-02,  5.407054971657606E-03,
2451845.500000000, A.D. 2000-Oct-28 00:00:00.0000,      64.182484,  1.970254983144533E+00, -1.154518832475756E-01,  2.418452899547423E-01, -1.201871031013352E-03,  1.231289973204460E-02,  5.364604401998838E-03,
2451850.500000000, A.D. 2000-Nov-02 00:00:00.0000,      64.182545,  1.963321126223351E+00, -5.384492180891925E-02,  2.685508783897823E-01, -1.572008187907723E-03,  1.232797960957773E-02,  5.316723729159292E-03,
2451855.500000000, A.D. 2000-Nov-07 00:00:00.0000,      64.182616,  1.954532006629947E+00,  7.808676145150875E-03,  2.950034411692738E-01, -1.943881428323404E-03,  1.233151841287935E-02,  5.263391939331626E-03,
2451860.500000000, A.D. 2000-Nov-12 00:00:00.0000,      64.182696,  1.943880380906490E+00,  6.945069058965703E-02,  3.211757030920075E-01, -2.316912667476926E-03,  1.232331519606905E-02,  5.204603884582009E-03,
2451865.500000000, A.D. 2000-Nov-17 00:00:00.0000,      64.182786,  1.931361943558648E+00,  1.310219722259384E-01,  3.470404041807292E-01, -2.690505208004270E-03,  1.230319953427645E-02,  5.140370895728926E-03,
2451870.500000000, A.D. 2000-Nov-22 00:00:00.0000,      64.182886,  1.916975413860170E+00,  1.924626000229632E-01,  3.725703833798963E-01, -3.064046284581496E-03,  1.227103346820992E-02,  5.070721284445817E-03,
2451875.500000000, A.D. 2000-Nov-27 00:00:00.0000,      64.182997,  1.900722609332032E+00,  2.537120480068178E-01,  3.977386644622774E-01, -3.436909845882844E-03,  1.222671325373175E-02,  4.995700722894156E-03,
